ONEWEB-0161             
1 48053U 21025M   25223.88789595  .00000287  00000+0  75041-3 0  9999
2 48053  87.8974  21.6687 0001567  98.4040 261.7267 13.13472862212912
ONEWEB-0158             
1 48054U 21025N   25224.45670010 -.00000218  00000+0 -63299-3 0  9993
2 48054  87.8986  21.5339 0001925  93.6297 266.5052 13.13468617213108
ONEWEB-0157             
1 48055U 21025P   25223.94884914 -.00000035  00000+0 -13140-3 0  9994
2 48055  87.8980  21.6447 0001364  98.9855 261.1428 13.13470476212977
ONEWEB-0162             
1 48056U 21025Q   25223.92501300 -.00000315  00000+0 -89652-3 0  9990
2 48056  87.8984  21.6479 0001747  95.3954 264.7374 13.13469999212947
ONEWEB-0155             
1 48057U 21025R   25223.93191124 -.00000335  00000+0 -95206-3 0  9995
2 48057  87.8979  21.6548 0001634  89.2950 270.8367 13.13468929213080
ONEWEB-0149             
1 48058U 21025S   25223.95393076  .00000178  00000+0  45141-3 0  9994
2 48058  87.8978  21.6448 0001836 101.3255 258.8080 13.13470426212898
ONEWEB-0148             
1 48059U 21025T   25223.91667825 -.00000175  00000+0 -51302-3 0  9992
2 48059  87.8980  21.6764 0001751 115.6773 244.4537 13.13468158213014
ONEWEB-0160             
1 48060U 21025U   25223.93361839 -.00000299  00000+0 -85482-3 0  9995
2 48060  87.8981  21.6706 0002583  87.7698 272.3727 13.13470368212962
ONEWEB-0163             
1 48061U 21025V   25223.91838111 -.00000198  00000+0 -57829-3 0  9998
2 48061  87.8980  21.6535 0001450  95.3156 264.8138 13.13470158213081
ONEWEB-0159             
1 48062U 21025W   25223.90990974 -.00000018  00000+0 -84863-4 0  9994
2 48062  87.8982  21.6371 0001570  99.1024 261.0283 13.13470082213009
ONEWEB-0164             
1 48063U 21025X   25223.89129474  .00000310  00000+0  81299-3 0  9994
2 48063  87.8979  21.6507 0001808  92.8566 267.2770 13.13470610212995
ONEWEB-0167             
1 48064U 21025Y   25223.91922929 -.00000227  00000+0 -65532-3 0  9995
2 48064  87.8989  21.6781 0001293  69.3425 290.7842 13.13470374212978
ONEWEB-0166             
1 48065U 21025Z   25223.94207800  .00000162  00000+0  40871-3 0  9998
2 48065  87.8976  21.6250 0001750  99.6268 260.5059 13.13470049213059
ONEWEB-0151             
1 48066U 21025AA  25223.94377052 -.00000098  00000+0 -30308-3 0  9990
2 48066  87.8983  21.6487 0001737  89.7767 270.3561 13.13470678212996
ONEWEB-0170             
1 48067U 21025AB  25223.95223600  .00000107  00000+0  25938-3 0  9993
2 48067  87.8982  21.6530 0002040  81.4475 278.6885 13.13471265212957
ONEWEB-0168             
1 48068U 21025AC  25223.93698936 -.00000626  00000+0 -17492-2 0  9993
2 48068  87.8982  21.6373 0001598  96.6745 263.4566 13.13471317212965
ONEWEB-0173             
1 48069U 21025AD  25223.92853355 -.00000329  00000+0 -93685-3 0  9990
2 48069  87.8983  21.6472 0001347  89.3045 270.8238 13.13470064213205
