[{"OBJECT_NAME":"ONEWEB-0161","OBJECT_ID":"2021-025M","EPOCH":"2025-08-11T21:18:34.210080","MEAN_MOTION":13.13472862,"ECCENTRICITY":0.0001567,"INCLINATION":87.8974,"RA_OF_ASC_NODE":21.6687,"ARG_OF_PERICENTER":98.404,"MEAN_ANOMALY":261.7267,"EPHEMERIS_TYPE":0,"CLASSIFICATION_TYPE":"U","NORAD_CAT_ID":48053,"ELEMENT_SET_NO":999,"REV_AT_EPOCH":21291,"BSTAR":0.00075041,"MEAN_MOTION_DOT":2.87e-6,"MEAN_MOTION_DDOT":0},{"OBJECT_NAME":"ONEWEB-0158","OBJECT_ID":"2021-025N","EPOCH":"2025-08-12T10:57:38.888640","MEAN_MOTION":13.13468617,"ECCENTRICITY":0.0001925,"INCLINATION":87.8986,"RA_OF_ASC_NODE":21.5339,"ARG_OF_PERICENTER":93.6297,"MEAN_ANOMALY":266.5052,"EPHEMERIS_TYPE":0,"CLASSIFICATION_TYPE":"U","NORAD_CAT_ID":48054,"ELEMENT_SET_NO":999,"REV_AT_EPOCH":21310,"BSTAR":-0.00063299,"MEAN_MOTION_DOT":-2.18e-6,"MEAN_MOTION_DDOT":0},{"OBJECT_NAME":"ONEWEB-0157","OBJECT_ID":"2021-025P","EPOCH":"2025-08-11T22:46:20.565696","MEAN_MOTION":13.13470476,"ECCENTRICITY":0.0001364,"INCLINATION":87.898,"RA_OF_ASC_NODE":21.6447,"ARG_OF_PERICENTER":98.9855,"MEAN_ANOMALY":261.1428,"EPHEMERIS_TYPE":0,"CLASSIFICATION_TYPE":"U","NORAD_CAT_ID":48055,"ELEMENT_SET_NO":999,"REV_AT_EPOCH":21297,"BSTAR":-0.0001314,"MEAN_MOTION_DOT":-3.5e-7,"MEAN_MOTION_DDOT":0},{"OBJECT_NAME":"ONEWEB-0162","OBJECT_ID":"2021-025Q","EPOCH":"2025-08-11T22:12:01.123200","MEAN_MOTION":13.13469999,"ECCENTRICITY":0.0001747,"INCLINATION":87.8984,"RA_OF_ASC_NODE":21.6479,"ARG_OF_PERICENTER":95.3954,"MEAN_ANOMALY":264.7374,"EPHEMERIS_TYPE":0,"CLASSIFICATION_TYPE":"U","NORAD_CAT_ID":48056,"ELEMENT_SET_NO":999,"REV_AT_EPOCH":21294,"BSTAR":-0.00089652,"MEAN_MOTION_DOT":-3.15e-6,"MEAN_MOTION_DDOT":0},{"OBJECT_NAME":"ONEWEB-0155","OBJECT_ID":"2021-025R","EPOCH":"2025-08-11T22:21:57.131136","MEAN_MOTION":13.13468929,"ECCENTRICITY":0.0001634,"INCLINATION":87.8979,"RA_OF_ASC_NODE":21.6548,"ARG_OF_PERICENTER":89.295,"MEAN_ANOMALY":270.8367,"EPHEMERIS_TYPE":0,"CLASSIFICATION_TYPE":"U","NORAD_CAT_ID":48057,"ELEMENT_SET_NO":999,"REV_AT_EPOCH":21308,"BSTAR":-0.00095206,"MEAN_MOTION_DOT":-3.35e-6,"MEAN_MOTION_DDOT":0},{"OBJECT_NAME":"ONEWEB-0149","OBJECT_ID":"2021-025S","EPOCH":"2025-08-11T22:53:39.617664","MEAN_MOTION":13.13470426,"ECCENTRICITY":0.0001836,"INCLINATION":87.8978,"RA_OF_ASC_NODE":21.6448,"ARG_OF_PERICENTER":101.3255,"MEAN_ANOMALY":258.808,"EPHEMERIS_TYPE":0,"CLASSIFICATION_TYPE":"U","NORAD_CAT_ID":48058,"ELEMENT_SET_NO":999,"REV_AT_EPOCH":21289,"BSTAR":0.00045141,"MEAN_MOTION_DOT":1.78e-6,"MEAN_MOTION_DDOT":0},{"OBJECT_NAME":"ONEWEB-0148","OBJECT_ID":"2021-025T","EPOCH":"2025-08-11T22:00:01.000800","MEAN_MOTION":13.13468158,"ECCENTRICITY":0.0001751,"INCLINATION":87.898,"RA_OF_ASC_NODE":21.6764,"ARG_OF_PERICENTER":115.6773,"MEAN_ANOMALY":244.4537,"EPHEMERIS_TYPE":0,"CLASSIFICATION_TYPE":"U","NORAD_CAT_ID":48059,"ELEMENT_SET_NO":999,"REV_AT_EPOCH":21301,"BSTAR":-0.00051302,"MEAN_MOTION_DOT":-1.75e-6,"MEAN_MOTION_DDOT":0},{"OBJECT_NAME":"ONEWEB-0160","OBJECT_ID":"2021-025U","EPOCH":"2025-08-11T22:24:24.628896","MEAN_MOTION":13.13470368,"ECCENTRICITY":0.0002583,"INCLINATION":87.8981,"RA_OF_ASC_NODE":21.6706,"ARG_OF_PERICENTER":87.7698,"MEAN_ANOMALY":272.3727,"EPHEMERIS_TYPE":0,"CLASSIFICATION_TYPE":"U","NORAD_CAT_ID":48060,"ELEMENT_SET_NO":999,"REV_AT_EPOCH":21296,"BSTAR":-0.00085482,"MEAN_MOTION_DOT":-2.99e-6,"MEAN_MOTION_DDOT":0},{"OBJECT_NAME":"ONEWEB-0163","OBJECT_ID":"2021-025V","EPOCH":"2025-08-11T22:02:28.127904","MEAN_MOTION":13.13470158,"ECCENTRICITY":0.000145,"INCLINATION":87.898,"RA_OF_ASC_NODE":21.6535,"ARG_OF_PERICENTER":95.3156,"MEAN_ANOMALY":264.8138,"EPHEMERIS_TYPE":0,"CLASSIFICATION_TYPE":"U","NORAD_CAT_ID":48061,"ELEMENT_SET_NO":999,"REV_AT_EPOCH":21308,"BSTAR":-0.00057829,"MEAN_MOTION_DOT":-1.98e-6,"MEAN_MOTION_DDOT":0},{"OBJECT_NAME":"ONEWEB-0159","OBJECT_ID":"2021-025W","EPOCH":"2025-08-11T21:50:16.201536","MEAN_MOTION":13.13470082,"ECCENTRICITY":0.000157,"INCLINATION":87.8982,"RA_OF_ASC_NODE":21.6371,"ARG_OF_PERICENTER":99.1024,"MEAN_ANOMALY":261.0283,"EPHEMERIS_TYPE":0,"CLASSIFICATION_TYPE":"U","NORAD_CAT_ID":48062,"ELEMENT_SET_NO":999,"REV_AT_EPOCH":21300,"BSTAR":-8.4863e-5,"MEAN_MOTION_DOT":-1.8e-7,"MEAN_MOTION_DDOT":0},{"OBJECT_NAME":"ONEWEB-0164","OBJECT_ID":"2021-025X","EPOCH":"2025-08-11T21:23:27.865536","MEAN_MOTION":13.1347061,"ECCENTRICITY":0.0001808,"INCLINATION":87.8979,"RA_OF_ASC_NODE":21.6507,"ARG_OF_PERICENTER":92.8566,"MEAN_ANOMALY":267.277,"EPHEMERIS_TYPE":0,"CLASSIFICATION_TYPE":"U","NORAD_CAT_ID":48063,"ELEMENT_SET_NO":999,"REV_AT_EPOCH":21299,"BSTAR":0.00081299,"MEAN_MOTION_DOT":3.1e-6,"MEAN_MOTION_DDOT":0},{"OBJECT_NAME":"ONEWEB-0167","OBJECT_ID":"2021-025Y","EPOCH":"2025-08-11T22:03:41.410656","MEAN_MOTION":13.13470374,"ECCENTRICITY":0.0001293,"INCLINATION":87.8989,"RA_OF_ASC_NODE":21.6781,"ARG_OF_PERICENTER":69.3425,"MEAN_ANOMALY":290.7842,"EPHEMERIS_TYPE":0,"CLASSIFICATION_TYPE":"U","NORAD_CAT_ID":48064,"ELEMENT_SET_NO":999,"REV_AT_EPOCH":21297,"BSTAR":-0.00065532,"MEAN_MOTION_DOT":-2.27e-6,"MEAN_MOTION_DDOT":0},{"OBJECT_NAME":"ONEWEB-0166","OBJECT_ID":"2021-025Z","EPOCH":"2025-08-11T22:36:35.539200","MEAN_MOTION":13.13470049,"ECCENTRICITY":0.000175,"INCLINATION":87.8976,"RA_OF_ASC_NODE":21.625,"ARG_OF_PERICENTER":99.6268,"MEAN_ANOMALY":260.5059,"EPHEMERIS_TYPE":0,"CLASSIFICATION_TYPE":"U","NORAD_CAT_ID":48065,"ELEMENT_SET_NO":999,"REV_AT_EPOCH":21305,"BSTAR":0.00040871,"MEAN_MOTION_DOT":1.62e-6,"MEAN_MOTION_DDOT":0},{"OBJECT_NAME":"ONEWEB-0151","OBJECT_ID":"2021-025AA","EPOCH":"2025-08-11T22:39:01.772928","MEAN_MOTION":13.13470678,"ECCENTRICITY":0.0001737,"INCLINATION":87.8983,"RA_OF_ASC_NODE":21.6487,"ARG_OF_PERICENTER":89.7767,"MEAN_ANOMALY":270.3561,"EPHEMERIS_TYPE":0,"CLASSIFICATION_TYPE":"U","NORAD_CAT_ID":48066,"ELEMENT_SET_NO":999,"REV_AT_EPOCH":21299,"BSTAR":-0.00030308,"MEAN_MOTION_DOT":-9.8e-7,"MEAN_MOTION_DDOT":0},{"OBJECT_NAME":"ONEWEB-0170","OBJECT_ID":"2021-025AB","EPOCH":"2025-08-11T22:51:13.190400","MEAN_MOTION":13.13471265,"ECCENTRICITY":0.000204,"INCLINATION":87.8982,"RA_OF_ASC_NODE":21.653,"ARG_OF_PERICENTER":81.4475,"MEAN_ANOMALY":278.6885,"EPHEMERIS_TYPE":0,"CLASSIFICATION_TYPE":"U","NORAD_CAT_ID":48067,"ELEMENT_SET_NO":999,"REV_AT_EPOCH":21295,"BSTAR":0.00025938,"MEAN_MOTION_DOT":1.07e-6,"MEAN_MOTION_DDOT":0},{"OBJECT_NAME":"ONEWEB-0168","OBJECT_ID":"2021-025AC","EPOCH":"2025-08-11T22:29:15.880704","MEAN_MOTION":13.13471317,"ECCENTRICITY":0.0001598,"INCLINATION":87.8982,"RA_OF_ASC_NODE":21.6373,"ARG_OF_PERICENTER":96.6745,"MEAN_ANOMALY":263.4566,"EPHEMERIS_TYPE":0,"CLASSIFICATION_TYPE":"U","NORAD_CAT_ID":48068,"ELEMENT_SET_NO":999,"REV_AT_EPOCH":21296,"BSTAR":-0.0017492,"MEAN_MOTION_DOT":-6.26e-6,"MEAN_MOTION_DDOT":0},{"OBJECT_NAME":"ONEWEB-0173","OBJECT_ID":"2021-025AD","EPOCH":"2025-08-11T22:17:05.298720","MEAN_MOTION":13.13470064,"ECCENTRICITY":0.0001347,"INCLINATION":87.8983,"RA_OF_ASC_NODE":21.6472,"ARG_OF_PERICENTER":89.3045,"MEAN_ANOMALY":270.8238,"EPHEMERIS_TYPE":0,"CLASSIFICATION_TYPE":"U","NORAD_CAT_ID":48069,"ELEMENT_SET_NO":999,"REV_AT_EPOCH":21320,"BSTAR":-0.00093685,"MEAN_MOTION_DOT":-3.29e-6,"MEAN_MOTION_DDOT":0}]
